NORAD_CAT_ID,OBJECT_NAME,OBJECT_TYPE,EPOCH,MEAN_MOTION,ECCENTRICITY,INCLINATION,RA_OF_ASC_NODE,ARG_OF_PERICENTER,MEAN_ANOMALY,BSTAR,MEAN_MOTION_DOT,MEAN_MOTION_DDOT,TLE_LINE0,TLE_LINE1,TLE_LINE2,SEMIMAJOR_AXIS,PERIOD,APOGEE,PERIGEE,DECAYED
54791.0,STARLINK-5425,PAYLOAD,2023-08-29 04:37:41,15.08843543,0.0001303,53.2153,214.8042,86.0514,274.0627,4.9091e-05,4.94e-06,0.0,0 STARLINK-5425,1 54791U 22175AK  23241.19284018  .00000494  00000-0  49091-4 0  9992,2 54791  53.2153 214.8042 0001303  86.0514 274.0627 15.08843543 38559,6917.87,95.437,540.636,538.833,0.0
54791.0,STARLINK-5425,PAYLOAD,2023-08-30 04:28:28,15.08842496,0.0001345,53.2153,210.3436,92.2918,267.8228,5.7165e-05,6.22e-06,0.0,0 STARLINK-5425,1 54791U 22175AK  23242.18644076  .00000622  00000-0  57165-4 0  9990,2 54791  53.2153 210.3436 0001345  92.2918 267.8228 15.08842496 40860,6917.873,95.437,540.668,538.807,0.0
54791.0,STARLINK-5425,PAYLOAD,2023-08-31 07:30:01,15.08841107,0.0001452,53.216,205.2904,95.1773,264.9385,7.3543e-05,8.83e-06,0.0,0 STARLINK-5425,1 54791U 22175AK  23243.31252210  .00000883  00000-0  73543-4 0  9998,2 54791  53.2160 205.2904 0001452  95.1773 264.9385 15.08841107 38879,6917.877,95.437,540.746,538.738,0.0
54791.0,STARLINK-5425,PAYLOAD,2023-08-31 23:23:53,15.08836113,0.0001534,53.2159,202.3165,94.1953,265.9215,1.6155e-05,-3.1e-07,0.0,0 STARLINK-5425,1 54791U 22175AK  23243.97492829 -.00000031  00000-0  16155-4 0  9994,2 54791  53.2159 202.3165 0001534  94.1953 265.9215 15.08836113 38979,6917.892,95.438,540.818,538.696,0.0
54791.0,STARLINK-5425,PAYLOAD,2023-09-01 04:10:02,15.08840429,0.0001647,53.2161,201.4256,94.2234,265.8946,4.4107e-05,4.14e-06,0.0,0 STARLINK-5425,1 54791U 22175AK  23244.17364523  .00000414  00000-0  44107-4 0  9998,2 54791  53.2161 201.4256 0001647  94.2234 265.8946 15.08840429 41161,6917.879,95.438,540.883,538.605,0.0
54791.0,STARLINK-5425,PAYLOAD,2023-09-01 20:03:54,15.08836861,0.0001346,53.214,198.4497,89.1758,270.9389,0.0001378,1.906e-05,0.0,0 STARLINK-5425,1 54791U 22175AK  23244.83604449  .00001906  00000-0  13780-3 0  9994,2 54791  53.2140 198.4497 0001346  89.1758 270.9389 15.08836861 41264,6917.89,95.438,540.686,538.824,0.0
54791.0,STARLINK-5425,PAYLOAD,2023-09-02 05:36:12,15.08850602,0.0001359,53.2152,196.6666,91.4674,268.6473,0.00013358,1.839e-05,0.0,0 STARLINK-5425,1 54791U 22175AK  23245.23347711  .00001839  00000-0  13358-3 0  9991,2 54791  53.2152 196.6666 0001359  91.4674 268.6473 15.08850602 39165,6917.848,95.437,540.653,538.773,0.0
54791.0,STARLINK-5425,PAYLOAD,2023-09-03 00:40:51,15.08838126,0.0001467,53.2158,193.0983,86.5406,273.5754,4.1406e-05,3.71e-06,0.0,0 STARLINK-5425,1 54791U 22175AK  23246.02836923  .00000371  00000-0  41406-4 0  9993,2 54791  53.2158 193.0983 0001467  86.5406 273.5754 15.08838126 39289,6917.886,95.438,540.766,538.736,0.0
54791.0,STARLINK-5425,PAYLOAD,2023-09-03 07:02:23,15.08844687,0.0001344,53.2161,191.909,87.9008,272.2138,9.7764e-05,1.269e-05,0.0,0 STARLINK-5425,1 54791U 22175AK  23246.29332452  .00001269  00000-0  97764-4 0  9995,2 54791  53.2161 191.9090 0001344  87.9008 272.2138 15.08844687 41482,6917.866,95.437,540.661,538.801,0.0
54791.0,STARLINK-5425,PAYLOAD,2023-09-04 05:17:48,15.08836611,0.0002073,53.2157,187.7497,76.6132,283.5091,5.9319e-05,6.56e-06,0.0,0 STARLINK-5425,1 54791U 22175AK  23247.22069482  .00000656  00000-0  59319-4 0  9992,2 54791  53.2157 187.7497 0002073  76.6132 283.5091 15.08836611 39460,6917.891,95.438,541.19,538.322,0.0
54791.0,STARLINK-5425,PAYLOAD,2023-09-04 13:14:43,15.08834413,0.0001685,53.2174,186.2567,88.2206,271.8979,9.4213e-05,1.211e-05,0.0,0 STARLINK-5425,1 54791U 22175AK  23247.55189416  .00001211  00000-0  94213-4 0  9998,2 54791  53.2174 186.2567 0001685  88.2206 271.8979 15.08834413 41679,6917.897,95.438,540.928,538.597,0.0
54791.0,STARLINK-5425,PAYLOAD,2023-09-05 01:57:48,15.08837399,0.0001485,53.2168,183.8787,90.2122,269.904,6.7882e-05,7.92e-06,0.0,0 STARLINK-5425,1 54791U 22175AK  23248.08181473  .00000792  00000-0  67882-4 0  9997,2 54791  53.2168 183.8787 0001485  90.2122 269.9040 15.08837399 41759,6917.888,95.438,540.781,538.726,0.0
54791.0,STARLINK-5425,PAYLOAD,2023-09-07 01:39:22,15.08845638,0.0001492,53.2165,174.959,90.469,269.6473,0.00015376,2.16e-05,0.0,0 STARLINK-5425,1 54791U 22175AK  23250.06900996  .00002160  00000-0  15376-3 0  9998,2 54791  53.2165 174.9590 0001492  90.4690 269.6473 15.08845638 39893,6917.863,95.437,540.76,538.696,0.0
54791.0,STARLINK-5425,PAYLOAD,2023-09-08 01:30:09,15.0884191,0.0001256,53.2163,170.4963,94.1792,265.9344,6.8363e-05,8e-06,0.0,0 STARLINK-5425,1 54791U 22175AK  23251.06261178  .00000800  00000-0  68363-4 0  9995,2 54791  53.2163 170.4963 0001256  94.1792 265.9344 15.08841910 40042,6917.875,95.437,540.608,538.871,0.0
54791.0,STARLINK-5425,PAYLOAD,2023-09-08 04:40:55,15.08844742,0.000174,53.2176,169.9017,99.3677,260.7512,7.272e-05,8.7e-06,0.0,0 STARLINK-5425,1 54791U 22175AK  23251.19508986  .00000870  00000-0  72720-4 0  9999,2 54791  53.2176 169.9017 0001740  99.3677 260.7512 15.08844742 42224,6917.866,95.437,540.935,538.527,0.0
54791.0,STARLINK-5425,PAYLOAD,2023-09-09 04:31:42,15.08842388,0.0001282,53.2168,165.442,92.895,267.2189,6.658e-05,7.72e-06,0.0,0 STARLINK-5425,1 54791U 22175AK  23252.18869210  .00000772  00000-0  66580-4 0  9997,2 54791  53.2168 165.4420 0001282  92.8950 267.2189 15.08842388 40210,6917.873,95.437,540.625,538.851,0.0
54791.0,STARLINK-5425,PAYLOAD,2023-09-09 10:53:15,15.08839312,0.0001357,53.217,164.2528,86.8066,273.3081,8.604e-05,1.082e-05,0.0,0 STARLINK-5425,1 54791U 22175AK  23252.45365464  .00001082  00000-0  86040-4 0  9997,2 54791  53.2170 164.2528 0001357  86.8066 273.3081 15.08839312 42419,6917.882,95.438,540.686,538.809,0.0
54791.0,STARLINK-5425,PAYLOAD,2023-09-10 02:47:07,15.08842119,0.000146,53.2177,161.2821,97.7064,262.4094,4.7278e-05,4.65e-06,0.0,0 STARLINK-5425,1 54791U 22175AK  23253.11605515  .00000465  00000-0  47278-4 0  9999,2 54791  53.2177 161.2821 0001460  97.7064 262.4094 15.08842119 42516,6917.874,95.437,540.749,538.729,0.0
54791.0,STARLINK-5425,PAYLOAD,2023-09-10 18:40:59,15.0883646,0.0001258,53.2174,158.3078,96.8652,263.2483,1.7676e-05,-7e-08,0.0,0 STARLINK-5425,1 54791U 22175AK  23253.77846226 -.00000007  00000-0  17676-4 0  9999,2 54791  53.2174 158.3078 0001258  96.8652 263.2483 15.08836460 40456,6917.891,95.438,540.626,538.886,0.0
54791.0,STARLINK-5425,PAYLOAD,2023-09-11 02:37:54,15.088451,0.0001262,53.2173,156.8213,98.4585,261.655,8.7764e-05,1.109e-05,0.0,0 STARLINK-5425,1 54791U 22175AK  23254.10965536  .00001109  00000-0  87764-4 0  9991,2 54791  53.2173 156.8213 0001262  98.4585 261.6550 15.08845100 40501,6917.865,95.437,540.603,538.857,0.0
54791.0,STARLINK-5425,PAYLOAD,2023-09-11 10:34:50,15.08840089,0.0001392,53.2176,155.3313,83.3946,276.7204,6.4579e-05,7.4e-06,0.0,0 STARLINK-5425,1 54791U 22175AK  23254.44085991  .00000740  00000-0  64579-4 0  9995,2 54791  53.2176 155.3313 0001392  83.3946 276.7204 15.08840089 42716,6917.88,95.438,540.708,538.782,0.0
54791.0,STARLINK-5425,PAYLOAD,2023-09-11 23:17:55,15.08845345,0.0001365,53.217,152.9549,89.159,270.9559,0.00011177,1.492e-05,0.0,0 STARLINK-5425,1 54791U 22175AK  23254.97077588  .00001492  00000-0  11177-3 0  9996,2 54791  53.2170 152.9549 0001365  89.1590 270.9559 15.08845345 42790,6917.864,95.437,540.673,538.785,0.0
54791.0,STARLINK-5425,PAYLOAD,2023-09-12 16:47:09,15.08841318,0.0001284,53.2162,149.6837,95.7139,264.4,6.4426e-05,7.38e-06,0.0,0 STARLINK-5425,1 54791U 22175AK  23255.69941999  .00000738  00000-0  64426-4 0  9990,2 54791  53.2162 149.6837 0001284  95.7139 264.4000 15.08841318 40744,6917.876,95.437,540.63,538.853,0.0
54791.0,STARLINK-5425,PAYLOAD,2023-09-12 21:33:19,15.08842593,0.0001278,53.2164,148.7914,94.082,266.0319,6.6867e-05,7.77e-06,0.0,0 STARLINK-5425,1 54791U 22175AK  23255.89813935  .00000777  00000-0  66867-4 0  9994,2 54791  53.2164 148.7914 0001278  94.0820 266.0319 15.08842593 42934,6917.872,95.437,540.622,538.853,0.0
54791.0,STARLINK-5425,PAYLOAD,2023-09-13 00:44:05,15.08847604,0.0001304,53.2168,148.1958,91.762,268.3521,0.00011728,1.579e-05,0.0,0 STARLINK-5425,1 54791U 22175AK  23256.03061500  .00001579  00000-0  11728-3 0  9990,2 54791  53.2168 148.1958 0001304  91.7620 268.3521 15.08847604 40792,6917.857,95.437,540.624,538.82,0.0
54791.0,STARLINK-5425,PAYLOAD,2023-09-13 21:24:05,15.08852615,0.0001383,53.2167,144.3304,87.8378,272.2772,0.00011487,1.541e-05,0.0,0 STARLINK-5425,1 54791U 22175AK  23256.89172847  .00001541  00000-0  11487-3 0  9992,2 54791  53.2167 144.3304 0001383  87.8378 272.2772 15.08852615 43082,6917.842,95.437,540.664,538.75,0.0
54791.0,STARLINK-5425,PAYLOAD,2023-09-14 02:10:14,15.08853147,0.0001317,53.2162,143.439,93.0575,267.0568,0.00025091,3.709e-05,0.0,0 STARLINK-5425,1 54791U 22175AK  23257.09044875  .00003709  00000-0  25091-3 0  9998,2 54791  53.2162 143.4390 0001317  93.0575 267.0568 15.08853147 40956,6917.84,95.437,540.616,538.794,0.0
54791.0,STARLINK-5425,PAYLOAD,2023-09-14 21:14:53,15.08836608,0.0001333,53.2165,139.8697,93.6478,266.4666,-6.5604e-05,-1.332e-05,0.0,0 STARLINK-5425,1 54791U 22175AK  23257.88533963 -.00001332  00000-0 -65604-4 0  9993,2 54791  53.2165 139.8697 0001333  93.6478 266.4666 15.08836608 43233,6917.891,95.438,540.678,538.834,0.0
54791.0,STARLINK-5425,PAYLOAD,2023-09-14 22:50:16,15.08835,0.0001377,53.2162,139.5722,87.6924,272.4226,-8.4797e-05,-1.637e-05,0.0,0 STARLINK-5425,1 54791U 22175AK  23257.95158083 -.00001637  00000-0 -84797-4 0  9999,2 54791  53.2162 139.5722 0001377  87.6924 272.4226 15.08835000 41088,6917.896,95.438,540.713,538.808,0.0
54791.0,STARLINK-5425,PAYLOAD,2023-09-16 01:51:48,15.08857071,0.0001519,53.2168,134.5165,93.0573,267.0593,1.2038e-06,-2.69e-06,0.0,0 STARLINK-5425,1 54791U 22175AK  23259.07764962 -.00000269  00000-0  12038-5 0  9992,2 54791  53.2168 134.5165 0001519  93.0573 267.0593 15.08857071 41257,6917.828,95.436,540.744,538.642,0.0
